{
    "mercury": {
        "semimajor_axis": 3.8709948,
        "eccentricity": 2.0563469,
        "inclination": 7.0039389,
        "mean_anomaly": 1.2089727,
        "argument_of_perihelion": 2.9174832,
        "ascending_node": 4.8308203,
        "mean_daily_motion": 4.0923256,
        "epoch_jd": 2458217.5
    },
    "venus": {
        "semimajor_axis": 7.2333086,
        "eccentricity": 6.7946742,
        "inclination": 3.3944942,
        "mean_anomaly": 3.0081840,
        "argument_of_perihelion": 5.4749184,
        "ascending_node": 7.6628263,
        "mean_daily_motion": 1.6021350,
        "epoch_jd": 2458217.5
    },
    "mars": {
        "semimajor_axis": 1.5237578,
        "eccentricity": 9.3351352,
        "inclination": 1.8482183,
        "mean_anomaly": 2.7593316,
        "argument_of_perihelion": 2.8661082,
        "ascending_node": 4.9508644,
        "mean_daily_motion": 5.2399871,
        "epoch_jd": 2458217.5
    },
    "jupiter": {
        "semimajor_axis": 5.2023850,
        "eccentricity": 4.8868920,
        "inclination": 1.3036654,
        "mean_anomaly": 2.1462779,
        "argument_of_perihelion": 2.7367542,
        "ascending_node": 1.0051784,
        "mean_daily_motion": 8.3101244,
        "epoch_jd": 2458217.5
    },
    "saturn": {
        "semimajor_axis": 9.5736527,
        "eccentricity": 5.1390356,
        "inclination": 2.4845287,
        "mean_anomaly": 1.7963765,
        "argument_of_perihelion": 3.3990694,
        "ascending_node": 1.1360997,
        "mean_daily_motion": 3.3277419,
        "epoch_jd": 2458217.5
    },
    "uranus": {
        "semimajor_axis": 1.9134347,
        "eccentricity": 4.9060699,
        "inclination": 7.7118838,
        "mean_anomaly": 2.1784283,
        "argument_of_perihelion": 9.9538124,
        "ascending_node": 7.4040114,
        "mean_daily_motion": 1.1775872,
        "epoch_jd": 2458217.5
    },
    "neptune": {
        "semimajor_axis": 3.0071777,
        "eccentricity": 6.9276385,
        "inclination": 1.7665975,
        "mean_anomaly": 3.0847437,
        "argument_of_perihelion": 2.6436070,
        "ascending_node": 1.3170456,
        "mean_daily_motion": 5.9769087,
        "epoch_jd": 2458217.5
    }
}
